FLOCK 4BE-17            
1 60492U 24149AA  26062.76836804  .00021886  00000+0  61791-3 0  9990
2 60492  97.3835 145.5434 0002023 262.1349  97.9666 15.36388966 86055
FLOCK 4BE-22            
1 60494U 24149AC  26062.77260442  .00027808  00000+0  75786-3 0  9991
2 60494  97.3789 145.5932 0002689 288.4304  71.6648 15.37439265 86080
FLOCK 4BE-34            
1 60495U 24149AD  26062.92584974  .00022947  00000+0  62021-3 0  9995
2 60495  97.3835 146.4905 0002296 292.5426  67.5576 15.37737134 86134
FLOCK 4BE-32            
1 60497U 24149AF  26062.75053133  .00025621  00000+0  68237-3 0  9993
2 60497  97.3776 145.8206 0002612 290.6432  69.4533 15.38168747 86105
FLOCK 4BE-30            
1 60499U 24149AH  26062.76100249  .00025023  00000+0  67026-3 0  9998
2 60499  97.3857 146.3886 0001996 292.5181  67.5852 15.37998789 85482
FLOCK 4BE-11            
1 60501U 24149AK  26062.80213934  .00029634  00000+0  76777-3 0  9998
2 60501  97.3760 145.9975 0003031 291.2658  68.8264 15.38988330 86125
FLOCK 4BE-24            
1 60505U 24149AP  26062.78322820  .00027267  00000+0  70996-3 0  9991
2 60505  97.3774 146.2247 0002882 301.1806  58.9157 15.38853501 86132
TANAGER-1               
1 60507U 24149AR  26062.34010780  .00005195  00000+0  11793-3 0  9990
2 60507  97.3800 155.6291 0007094 222.8043 137.2653 15.43478970 86703
FLOCK 4BE-29            
1 60509U 24149AT  26062.74980443  .00029075  00000+0  72623-3 0  9990
2 60509  97.3859 147.3199 0001989 321.8734  38.2371 15.40114681 86168
FLOCK 4BE-2             
1 60511U 24149AV  26062.79247868  .00059738  00000+0  13683-2 0  9994
2 60511  97.3860 147.9188 0002687 299.7883  60.3097 15.42568694 86206
FLOCK 4BE-13            
1 60512U 24149AW  26062.78833708  .00026181  00000+0  68870-3 0  9993
2 60512  97.3774 146.3335 0003431 291.8988  68.1892 15.38544691 86143
FLOCK 4BE-27            
1 60513U 24149AX  26062.87689131  .00014784  00000+0  47411-3 0  9997
2 60513  97.3881 144.8122 0003033 335.4265  24.6832 15.32433844 86008
FLOCK 4BE-9             
1 60514U 24149AY  26062.76908763  .00022276  00000+0  61006-3 0  9992
2 60514  97.3845 146.2680 0001715 332.0125  28.1027 15.37334840 86104
FLOCK 4BE-6             
1 60516U 24149BA  26062.78906331  .00020884  00000+0  58990-3 0  9996
2 60516  97.3846 145.8218 0002353 320.7118  39.3955 15.36383035 86073
FLOCK 4BE-14            
1 60517U 24149BB  26062.79170699  .00022804  00000+0  62259-3 0  9995
2 60517  97.3759 145.8944 0003238 316.4246  43.6742 15.37422220 86118
FLOCK 4BE-1             
1 60518U 24149BC  26062.77817014  .00026220  00000+0  68675-3 0  9997
2 60518  97.3833 146.8076 0003091 311.9500  48.1481 15.38678429 86147
