[{"OBJECT_NAME":"FLOCK 4BE-17","OBJECT_ID":"2024-149AA","EPOCH":"2026-03-03T18:26:26.998656","MEAN_MOTION":15.36388966,"ECCENTRICITY":0.00020231,"INCLINATION":97.3835,"RA_OF_ASC_NODE":145.5434,"ARG_OF_PERICENTER":262.1349,"MEAN_ANOMALY":97.9666,"EPHEMERIS_TYPE":0,"CLASSIFICATION_TYPE":"U","NORAD_CAT_ID":60492,"ELEMENT_SET_NO":999,"REV_AT_EPOCH":8605,"BSTAR":0.00061790723,"MEAN_MOTION_DOT":0.00021886,"MEAN_MOTION_DDOT":0},{"OBJECT_NAME":"FLOCK 4BE-22","OBJECT_ID":"2024-149AC","EPOCH":"2026-03-03T18:32:33.021888","MEAN_MOTION":15.37439265,"ECCENTRICITY":0.00026897,"INCLINATION":97.3789,"RA_OF_ASC_NODE":145.5932,"ARG_OF_PERICENTER":288.4304,"MEAN_ANOMALY":71.6648,"EPHEMERIS_TYPE":0,"CLASSIFICATION_TYPE":"U","NORAD_CAT_ID":60494,"ELEMENT_SET_NO":999,"REV_AT_EPOCH":8608,"BSTAR":0.00075785554,"MEAN_MOTION_DOT":0.00027808,"MEAN_MOTION_DDOT":0},{"OBJECT_NAME":"FLOCK 4BE-34","OBJECT_ID":"2024-149AD","EPOCH":"2026-03-03T22:13:13.417536","MEAN_MOTION":15.37737134,"ECCENTRICITY":0.00022968,"INCLINATION":97.3835,"RA_OF_ASC_NODE":146.4905,"ARG_OF_PERICENTER":292.5426,"MEAN_ANOMALY":67.5576,"EPHEMERIS_TYPE":0,"CLASSIFICATION_TYPE":"U","NORAD_CAT_ID":60495,"ELEMENT_SET_NO":999,"REV_AT_EPOCH":8613,"BSTAR":0.00062020729,"MEAN_MOTION_DOT":0.00022947,"MEAN_MOTION_DDOT":0},{"OBJECT_NAME":"FLOCK 4BE-32","OBJECT_ID":"2024-149AF","EPOCH":"2026-03-03T18:00:45.906912","MEAN_MOTION":15.38168747,"ECCENTRICITY":0.00026121,"INCLINATION":97.3776,"RA_OF_ASC_NODE":145.8206,"ARG_OF_PERICENTER":290.6432,"MEAN_ANOMALY":69.4533,"EPHEMERIS_TYPE":0,"CLASSIFICATION_TYPE":"U","NORAD_CAT_ID":60497,"ELEMENT_SET_NO":999,"REV_AT_EPOCH":8610,"BSTAR":0.00068236708,"MEAN_MOTION_DOT":0.00025621,"MEAN_MOTION_DDOT":0},{"OBJECT_NAME":"FLOCK 4BE-30","OBJECT_ID":"2024-149AH","EPOCH":"2026-03-03T18:15:50.615136","MEAN_MOTION":15.37998789,"ECCENTRICITY":0.00019966,"INCLINATION":97.3857,"RA_OF_ASC_NODE":146.3886,"ARG_OF_PERICENTER":292.5181,"MEAN_ANOMALY":67.5852,"EPHEMERIS_TYPE":0,"CLASSIFICATION_TYPE":"U","NORAD_CAT_ID":60499,"ELEMENT_SET_NO":999,"REV_AT_EPOCH":8548,"BSTAR":0.00067026496,"MEAN_MOTION_DOT":0.00025023,"MEAN_MOTION_DDOT":0},{"OBJECT_NAME":"FLOCK 4BE-11","OBJECT_ID":"2024-149AK","EPOCH":"2026-03-03T19:15:04.838976","MEAN_MOTION":15.3898833,"ECCENTRICITY":0.00030312,"INCLINATION":97.376,"RA_OF_ASC_NODE":145.9975,"ARG_OF_PERICENTER":291.2658,"MEAN_ANOMALY":68.8264,"EPHEMERIS_TYPE":0,"CLASSIFICATION_TYPE":"U","NORAD_CAT_ID":60501,"ELEMENT_SET_NO":999,"REV_AT_EPOCH":8612,"BSTAR":0.0007677664,"MEAN_MOTION_DOT":0.00029634,"MEAN_MOTION_DDOT":0},{"OBJECT_NAME":"FLOCK 4BE-24","OBJECT_ID":"2024-149AP","EPOCH":"2026-03-03T18:47:50.916480","MEAN_MOTION":15.38853501,"ECCENTRICITY":0.00028825,"INCLINATION":97.3774,"RA_OF_ASC_NODE":146.2247,"ARG_OF_PERICENTER":301.1806,"MEAN_ANOMALY":58.9157,"EPHEMERIS_TYPE":0,"CLASSIFICATION_TYPE":"U","NORAD_CAT_ID":60505,"ELEMENT_SET_NO":999,"REV_AT_EPOCH":8613,"BSTAR":0.00070996092,"MEAN_MOTION_DOT":0.00027267,"MEAN_MOTION_DDOT":0},{"OBJECT_NAME":"TANAGER-1","OBJECT_ID":"2024-149AR","EPOCH":"2026-03-03T08:09:45.313920","MEAN_MOTION":15.4347897,"ECCENTRICITY":0.00070945,"INCLINATION":97.38,"RA_OF_ASC_NODE":155.6291,"ARG_OF_PERICENTER":222.8043,"MEAN_ANOMALY":137.2653,"EPHEMERIS_TYPE":0,"CLASSIFICATION_TYPE":"U","NORAD_CAT_ID":60507,"ELEMENT_SET_NO":999,"REV_AT_EPOCH":8670,"BSTAR":0.00011793279,"MEAN_MOTION_DOT":5.195e-5,"MEAN_MOTION_DDOT":0},{"OBJECT_NAME":"FLOCK 4BE-29","OBJECT_ID":"2024-149AT","EPOCH":"2026-03-03T17:59:43.102752","MEAN_MOTION":15.40114681,"ECCENTRICITY":0.00019899,"INCLINATION":97.3859,"RA_OF_ASC_NODE":147.3199,"ARG_OF_PERICENTER":321.8734,"MEAN_ANOMALY":38.2371,"EPHEMERIS_TYPE":0,"CLASSIFICATION_TYPE":"U","NORAD_CAT_ID":60509,"ELEMENT_SET_NO":999,"REV_AT_EPOCH":8616,"BSTAR":0.00072623165,"MEAN_MOTION_DOT":0.00029075,"MEAN_MOTION_DDOT":0},{"OBJECT_NAME":"FLOCK 4BE-2","OBJECT_ID":"2024-149AV","EPOCH":"2026-03-03T19:01:10.157952","MEAN_MOTION":15.42568694,"ECCENTRICITY":0.00026873,"INCLINATION":97.386,"RA_OF_ASC_NODE":147.9188,"ARG_OF_PERICENTER":299.7883,"MEAN_ANOMALY":60.3097,"EPHEMERIS_TYPE":0,"CLASSIFICATION_TYPE":"U","NORAD_CAT_ID":60511,"ELEMENT_SET_NO":999,"REV_AT_EPOCH":8620,"BSTAR":0.0013683056,"MEAN_MOTION_DOT":0.00059738,"MEAN_MOTION_DDOT":0},{"OBJECT_NAME":"FLOCK 4BE-13","OBJECT_ID":"2024-149AW","EPOCH":"2026-03-03T18:55:12.323712","MEAN_MOTION":15.38544691,"ECCENTRICITY":0.00034314,"INCLINATION":97.3774,"RA_OF_ASC_NODE":146.3335,"ARG_OF_PERICENTER":291.8988,"MEAN_ANOMALY":68.1892,"EPHEMERIS_TYPE":0,"CLASSIFICATION_TYPE":"U","NORAD_CAT_ID":60512,"ELEMENT_SET_NO":999,"REV_AT_EPOCH":8614,"BSTAR":0.00068870325,"MEAN_MOTION_DOT":0.00026181,"MEAN_MOTION_DDOT":0},{"OBJECT_NAME":"FLOCK 4BE-27","OBJECT_ID":"2024-149AX","EPOCH":"2026-03-03T21:02:43.409184","MEAN_MOTION":15.32433844,"ECCENTRICITY":0.00030334,"INCLINATION":97.3881,"RA_OF_ASC_NODE":144.8122,"ARG_OF_PERICENTER":335.4265,"MEAN_ANOMALY":24.6832,"EPHEMERIS_TYPE":0,"CLASSIFICATION_TYPE":"U","NORAD_CAT_ID":60513,"ELEMENT_SET_NO":999,"REV_AT_EPOCH":8600,"BSTAR":0.00047411358,"MEAN_MOTION_DOT":0.00014784,"MEAN_MOTION_DDOT":0},{"OBJECT_NAME":"FLOCK 4BE-9","OBJECT_ID":"2024-149AY","EPOCH":"2026-03-03T18:27:29.171232","MEAN_MOTION":15.3733484,"ECCENTRICITY":0.00017151,"INCLINATION":97.3845,"RA_OF_ASC_NODE":146.268,"ARG_OF_PERICENTER":332.0125,"MEAN_ANOMALY":28.1027,"EPHEMERIS_TYPE":0,"CLASSIFICATION_TYPE":"U","NORAD_CAT_ID":60514,"ELEMENT_SET_NO":999,"REV_AT_EPOCH":8610,"BSTAR":0.00061005997,"MEAN_MOTION_DOT":0.00022276,"MEAN_MOTION_DDOT":0},{"OBJECT_NAME":"FLOCK 4BE-6","OBJECT_ID":"2024-149BA","EPOCH":"2026-03-03T18:56:15.069984","MEAN_MOTION":15.36383035,"ECCENTRICITY":0.00023539,"INCLINATION":97.3846,"RA_OF_ASC_NODE":145.8218,"ARG_OF_PERICENTER":320.7118,"MEAN_ANOMALY":39.3955,"EPHEMERIS_TYPE":0,"CLASSIFICATION_TYPE":"U","NORAD_CAT_ID":60516,"ELEMENT_SET_NO":999,"REV_AT_EPOCH":8607,"BSTAR":0.00058990025,"MEAN_MOTION_DOT":0.00020884,"MEAN_MOTION_DDOT":0},{"OBJECT_NAME":"FLOCK 4BE-14","OBJECT_ID":"2024-149BB","EPOCH":"2026-03-03T19:00:03.483936","MEAN_MOTION":15.3742222,"ECCENTRICITY":0.00032389,"INCLINATION":97.3759,"RA_OF_ASC_NODE":145.8944,"ARG_OF_PERICENTER":316.4246,"MEAN_ANOMALY":43.6742,"EPHEMERIS_TYPE":0,"CLASSIFICATION_TYPE":"U","NORAD_CAT_ID":60517,"ELEMENT_SET_NO":999,"REV_AT_EPOCH":8611,"BSTAR":0.00062259349,"MEAN_MOTION_DOT":0.00022804,"MEAN_MOTION_DDOT":0},{"OBJECT_NAME":"FLOCK 4BE-1","OBJECT_ID":"2024-149BC","EPOCH":"2026-03-03T18:40:33.900096","MEAN_MOTION":15.38678429,"ECCENTRICITY":0.00030914,"INCLINATION":97.3833,"RA_OF_ASC_NODE":146.8076,"ARG_OF_PERICENTER":311.95,"MEAN_ANOMALY":48.1481,"EPHEMERIS_TYPE":0,"CLASSIFICATION_TYPE":"U","NORAD_CAT_ID":60518,"ELEMENT_SET_NO":999,"REV_AT_EPOCH":8614,"BSTAR":0.0006867538,"MEAN_MOTION_DOT":0.0002622,"MEAN_MOTION_DDOT":0}]
